[{"OBJECT_NAME":"ONEWEB-0304","OBJECT_ID":"2021-075T","EPOCH":"2026-03-09T22:04:29.304768","MEAN_MOTION":13.17649847,"ECCENTRICITY":0.0001885,"INCLINATION":87.9156,"RA_OF_ASC_NODE":25.5802,"ARG_OF_PERICENTER":75.7343,"MEAN_ANOMALY":284.3997,"EPHEMERIS_TYPE":0,"CLASSIFICATION_TYPE":"U","NORAD_CAT_ID":49092,"ELEMENT_SET_NO":999,"REV_AT_EPOCH":22050,"BSTAR":-5.20383e-6,"MEAN_MOTION_DOT":1.1e-7,"MEAN_MOTION_DDOT":0},{"OBJECT_NAME":"SL-14 DEB","OBJECT_ID":"1991-056CQ","EPOCH":"2026-03-09T08:17:04.738272","MEAN_MOTION":13.26878818,"ECCENTRICITY":0.00448902,"INCLINATION":82.615,"RA_OF_ASC_NODE":198.4344,"ARG_OF_PERICENTER":217.5523,"MEAN_ANOMALY":142.2467,"EPHEMERIS_TYPE":0,"CLASSIFICATION_TYPE":"U","NORAD_CAT_ID":45356,"ELEMENT_SET_NO":999,"REV_AT_EPOCH":29119,"BSTAR":0.0011928281,"MEAN_MOTION_DOT":5.47e-6,"MEAN_MOTION_DDOT":0}]
